start=new Date('2022-03-29T00:00:00.000Z').valueOf();
sats=[{"MEAN_MOTION_DDOT":"0.0000000000000","REF_FRAME":"TEME","EPOCH":"2022-03-28T17:31:12.914112","TLE_LINE2":"2 48465  53.0542 184.8345 0001532  75.1943 284.9215 15.06403936 49169","MEAN_MOTION_DOT":"0.00003261","MEAN_MOTION":"15.06403936","OBJECT_ID":"2021-040AP","SITE":"AFETR","COUNTRY_CODE":"US","BSTAR":"0.00023771000000","MEAN_ANOMALY":"284.9215","SEMIMAJOR_AXIS":"6925.336","EPHEMERIS_TYPE":"0","CENTER_NAME":"EARTH","GP_ID":"199943241","RA_OF_ASC_NODE":"184.8345","MEAN_ELEMENT_THEORY":"SGP4","APOAPSIS":"548.262","REV_AT_EPOCH":"4916","TLE_LINE1":"1 48465U 21040AP  22087.73001058  .00003261  00000-0  23771-3 0  9992","ECCENTRICITY":"0.00015320","LAUNCH_DATE":"2021-05-09","PERIOD":"95.592","ELEMENT_SET_NO":"999","PERIAPSIS":"546.141","INCLINATION":"53.0542","OBJECT_NAME":"STARLINK-2681","ARG_OF_PERICENTER":"75.1943","DECAY_DATE":null,"OBJECT_TYPE":"PAYLOAD","NORAD_CAT_ID":"48465","RCS_SIZE":"LARGE","CLASSIFICATION_TYPE":"U","FILE":"3378342","TIME_SYSTEM":"UTC"},{"FILE":"3378342","TIME_SYSTEM":"UTC","NORAD_CAT_ID":"48466","RCS_SIZE":"LARGE","CLASSIFICATION_TYPE":"U","DECAY_DATE":null,"ARG_OF_PERICENTER":"59.1545","OBJECT_TYPE":"PAYLOAD","ELEMENT_SET_NO":"999","INCLINATION":"53.0556","OBJECT_NAME":"STARLINK-2687","PERIAPSIS":"546.048","ECCENTRICITY":"0.00016560","REV_AT_EPOCH":"4915","TLE_LINE1":"1 48466U 21040AQ  22087.64891541  .00002358  00000-0  17709-3 0  9997","PERIOD":"95.592","LAUNCH_DATE":"2021-05-09","RA_OF_ASC_NODE":"185.1998","CENTER_NAME":"EARTH","GP_ID":"199943993","MEAN_ELEMENT_THEORY":"SGP4","APOAPSIS":"548.342","MEAN_ANOMALY":"300.9606","SITE":"AFETR","COUNTRY_CODE":"US","BSTAR":"0.00017709000000","EPHEMERIS_TYPE":"0","SEMIMAJOR_AXIS":"6925.330","MEAN_MOTION_DOT":"0.00002358","MEAN_MOTION":"15.06406077","OBJECT_ID":"2021-040AQ","MEAN_MOTION_DDOT":"0.0000000000000","REF_FRAME":"TEME","TLE_LINE2":"2 48466  53.0556 185.1998 0001656  59.1545 300.9606 15.06406077 49151","EPOCH":"2022-03-28T15:34:26.291424"},{"CLASSIFICATION_TYPE":"U","NORAD_CAT_ID":"48467","RCS_SIZE":"LARGE","OBJECT_TYPE":"PAYLOAD","ARG_OF_PERICENTER":"65.9178","DECAY_DATE":null,"TIME_SYSTEM":"UTC","FILE":"3377801","PERIOD":"95.593","LAUNCH_DATE":"2021-05-09","ECCENTRICITY":"0.00015400","TLE_LINE1":"1 48467U 21040AR  22087.54203219 -.00000013  00000-0  18054-4 0  9998","REV_AT_EPOCH":"4913","OBJECT_NAME":"STARLINK-2659","INCLINATION":"53.0542","PERIAPSIS":"546.172","ELEMENT_SET_NO":"999","EPHEMERIS_TYPE":"0","SEMIMAJOR_AXIS":"6925.374","MEAN_ANOMALY":"294.1972","BSTAR":"0.00001805400000","COUNTRY_CODE":"US","SITE":"AFETR","APOAPSIS":"548.306","MEAN_ELEMENT_THEORY":"SGP4","RA_OF_ASC_NODE":"185.6777","GP_ID":"199906504","CENTER_NAME":"EARTH","TLE_LINE2":"2 48467  53.0542 185.6777 0001540  65.9178 294.1972 15.06391698 49136","EPOCH":"2022-03-28T13:00:31.581216","REF_FRAME":"TEME","MEAN_MOTION_DDOT":"0.0000000000000","OBJECT_ID":"2021-040AR","MEAN_MOTION":"15.06391698","MEAN_MOTION_DOT":"-0.00000013"},{"OBJECT_TYPE":"PAYLOAD","ARG_OF_PERICENTER":"69.8760","DECAY_DATE":null,"CLASSIFICATION_TYPE":"U","RCS_SIZE":"LARGE","NORAD_CAT_ID":"48468","FILE":"3378342","TIME_SYSTEM":"UTC","TLE_LINE1":"1 48468U 21040AS  22087.65629187  .00003454  00000-0  25067-3 0  9999","REV_AT_EPOCH":"4915","ECCENTRICITY":"0.00014730","LAUNCH_DATE":"2021-05-09","PERIOD":"95.592","ELEMENT_SET_NO":"999","PERIAPSIS":"546.200","OBJECT_NAME":"STARLINK-2685","INCLINATION":"53.0554","BSTAR":"0.00025067000000","COUNTRY_CODE":"US","SITE":"AFETR","MEAN_ANOMALY":"290.2388","SEMIMAJOR_AXIS":"6925.355","EPHEMERIS_TYPE":"0","GP_ID":"199942491","CENTER_NAME":"EARTH","RA_OF_ASC_NODE":"185.1559","APOAPSIS":"548.240","MEAN_ELEMENT_THEORY":"SGP4","REF_FRAME":"TEME","MEAN_MOTION_DDOT":"0.0000000000000","EPOCH":"2022-03-28T15:45:03.617568","TLE_LINE2":"2 48468  53.0554 185.1559 0001473  69.8760 290.2388 15.06398022 49156","MEAN_MOTION_DOT":"0.00003454","MEAN_MOTION":"15.06398022","OBJECT_ID":"2021-040AS"},{"ELEMENT_SET_NO":"999","OBJECT_NAME":"STARLINK-2661","INCLINATION":"53.0552","PERIAPSIS":"546.300","ECCENTRICITY":"0.00013300","TLE_LINE1":"1 48469U 21040AT  22087.53833924  .00003269  00000-0  23824-3 0  9996","REV_AT_EPOCH":"5040","PERIOD":"95.592","LAUNCH_DATE":"2021-05-09","FILE":"3378113","TIME_SYSTEM":"UTC","CLASSIFICATION_TYPE":"U","RCS_SIZE":"LARGE","NORAD_CAT_ID":"48469","OBJECT_TYPE":"PAYLOAD","DECAY_DATE":null,"ARG_OF_PERICENTER":"93.9217","MEAN_MOTION":"15.06397623","MEAN_MOTION_DOT":"0.00003269","OBJECT_ID":"2021-040AT","REF_FRAME":"TEME","MEAN_MOTION_DDOT":"0.0000000000000","TLE_LINE2":"2 48469  53.0552 185.6962 0001330  93.9217 266.1924 15.06397623 50409","EPOCH":"2022-03-28T12:55:12.510336","RA_OF_ASC_NODE":"185.6962","GP_ID":"199916378","CENTER_NAME":"EARTH","APOAPSIS":"548.142","MEAN_ELEMENT_THEORY":"SGP4","MEAN_ANOMALY":"266.1924","COUNTRY_CODE":"US","BSTAR":"0.00023824000000","SITE":"AFETR","EPHEMERIS_TYPE":"0","SEMIMAJOR_AXIS":"6925.356"},{"REF_FRAME":"TEME","MEAN_MOTION_DDOT":"0.0000000000000","TLE_LINE2":"2 48470  53.0546 184.8162 0001552  50.6917 309.4209 15.06414727 49152","EPOCH":"2022-03-28T17:36:30.890304","MEAN_MOTION":"15.06414727","MEAN_MOTION_DOT":"0.00006748","OBJECT_ID":"2021-040AU","MEAN_ANOMALY":"309.4209","BSTAR":"0.00047129000000","COUNTRY_CODE":"US","SITE":"AFETR","EPHEMERIS_TYPE":"0","SEMIMAJOR_AXIS":"6925.303","RA_OF_ASC_NODE":"184.8162","GP_ID":"199943493","CENTER_NAME":"EARTH","APOAPSIS":"548.243","MEAN_ELEMENT_THEORY":"SGP4","ECCENTRICITY":"0.00015520","TLE_LINE1":"1 48470U 21040AU  22087.73369086  .00006748  00000-0  47129-3 0  9992","REV_AT_EPOCH":"4915","PERIOD":"95.591","LAUNCH_DATE":"2021-05-09","ELEMENT_SET_NO":"999","OBJECT_NAME":"STARLINK-2675","INCLINATION":"53.0546","PERIAPSIS":"546.094","CLASSIFICATION_TYPE":"U","NORAD_CAT_ID":"48470","RCS_SIZE":"LARGE","OBJECT_TYPE":"PAYLOAD","ARG_OF_PERICENTER":"50.6917","DECAY_DATE":null,"FILE":"3378342","TIME_SYSTEM":"UTC"},{"MEAN_MOTION":"15.06407936","MEAN_MOTION_DOT":"0.00003579","OBJECT_ID":"2021-040AV","MEAN_MOTION_DDOT":"0.0000000000000","REF_FRAME":"TEME","TLE_LINE2":"2 48471  53.0530 185.7419 0001645  56.6435 303.4711 15.06407936 50401","EPOCH":"2022-03-28T12:39:16.701696","RA_OF_ASC_NODE":"185.7419","CENTER_NAME":"EARTH","GP_ID":"199916379","MEAN_ELEMENT_THEORY":"SGP4","APOAPSIS":"548.328","MEAN_ANOMALY":"303.4711","SITE":"AFETR","COUNTRY_CODE":"US","BSTAR":"0.00025898000000","EPHEMERIS_TYPE":"0","SEMIMAJOR_AXIS":"6925.324","ELEMENT_SET_NO":"999","INCLINATION":"53.0530","OBJECT_NAME":"STARLINK-2684","PERIAPSIS":"546.050","ECCENTRICITY":"0.00016450","REV_AT_EPOCH":"5040","TLE_LINE1":"1 48471U 21040AV  22087.52727664  .00003579  00000-0  25898-3 0  9998","PERIOD":"95.592","LAUNCH_DATE":"2021-05-09","FILE":"3378113","TIME_SYSTEM":"UTC","RCS_SIZE":"LARGE","NORAD_CAT_ID":"48471","CLASSIFICATION_TYPE":"U","ARG_OF_PERICENTER":"56.6435","DECAY_DATE":null,"OBJECT_TYPE":"PAYLOAD"},{"RA_OF_ASC_NODE":"184.6260","GP_ID":"199942992","CENTER_NAME":"EARTH","APOAPSIS":"548.329","MEAN_ELEMENT_THEORY":"SGP4","MEAN_ANOMALY":"302.8433","BSTAR":"0.00026786000000","COUNTRY_CODE":"US","SITE":"AFETR","EPHEMERIS_TYPE":"0","SEMIMAJOR_AXIS":"6925.321","MEAN_MOTION":"15.06409047","MEAN_MOTION_DOT":"0.00003711","OBJECT_ID":"2021-040AW","REF_FRAME":"TEME","MEAN_MOTION_DDOT":"0.0000000000000","TLE_LINE2":"2 48472  53.0545 184.6260 0001650  57.2715 302.8433 15.06409047 49153","EPOCH":"2022-03-28T18:34:53.809824","FILE":"3378342","TIME_SYSTEM":"UTC","CLASSIFICATION_TYPE":"U","NORAD_CAT_ID":"48472","RCS_SIZE":"LARGE","OBJECT_TYPE":"PAYLOAD","DECAY_DATE":null,"ARG_OF_PERICENTER":"57.2715","ELEMENT_SET_NO":"999","OBJECT_NAME":"STARLINK-2722","INCLINATION":"53.0545","PERIAPSIS":"546.043","ECCENTRICITY":"0.00016500","TLE_LINE1":"1 48472U 21040AW  22087.77423391  .00003711  00000-0  26786-3 0  9991","REV_AT_EPOCH":"4915","PERIOD":"95.592","LAUNCH_DATE":"2021-05-09"},{"PERIOD":"95.593","LAUNCH_DATE":"2021-05-09","ECCENTRICITY":"0.00018730","REV_AT_EPOCH":"4914","TLE_LINE1":"1 48473U 21040AX  22087.67841597  .00000298  00000-0  38941-4 0  9997","INCLINATION":"53.0530","OBJECT_NAME":"STARLINK-2658","PERIAPSIS":"545.949","ELEMENT_SET_NO":"999","RCS_SIZE":"MEDIUM","NORAD_CAT_ID":"48473","CLASSIFICATION_TYPE":"U","ARG_OF_PERICENTER":"46.7530","DECAY_DATE":null,"OBJECT_TYPE":"PAYLOAD","TIME_SYSTEM":"UTC","FILE":"3378342","TLE_LINE2":"2 48473  53.0530 185.0639 0001873  46.7530 313.3615 15.06389277 49148","EPOCH":"2022-03-28T16:16:55.139808","MEAN_MOTION_DDOT":"0.0000000000000","REF_FRAME":"TEME","OBJECT_ID":"2021-040AX","MEAN_MOTION":"15.06389277","MEAN_MOTION_DOT":"0.00000298","EPHEMERIS_TYPE":"0","SEMIMAJOR_AXIS":"6925.381","MEAN_ANOMALY":"313.3615","SITE":"AFETR","BSTAR":"0.00003894100000","COUNTRY_CODE":"US","MEAN_ELEMENT_THEORY":"SGP4","APOAPSIS":"548.544","RA_OF_ASC_NODE":"185.0639","CENTER_NAME":"EARTH","GP_ID":"199943242"},{"OBJECT_NAME":"STARLINK-2697","INCLINATION":"53.0540","PERIAPSIS":"546.103","ELEMENT_SET_NO":"999","PERIOD":"95.591","LAUNCH_DATE":"2021-05-09","ECCENTRICITY":"0.00015310","TLE_LINE1":"1 48474U 21040AY  22087.77793254  .00009828  00000-0  67749-3 0  9990","REV_AT_EPOCH":"4915","TIME_SYSTEM":"UTC","FILE":"3378342","CLASSIFICATION_TYPE":"U","RCS_SIZE":"LARGE","NORAD_CAT_ID":"48474","OBJECT_TYPE":"PAYLOAD","DECAY_DATE":null,"ARG_OF_PERICENTER":"61.3155","OBJECT_ID":"2021-040AY","MEAN_MOTION":"15.06416354","MEAN_MOTION_DOT":"0.00009828","TLE_LINE2":"2 48474  53.0540 184.6071 0001531  61.3155 298.7988 15.06416354 49159","EPOCH":"2022-03-28T18:40:13.371456","REF_FRAME":"TEME","MEAN_MOTION_DDOT":"0.0000000000000","APOAPSIS":"548.224","MEAN_ELEMENT_THEORY":"SGP4","RA_OF_ASC_NODE":"184.6071","GP_ID":"199943994","CENTER_NAME":"EARTH","EPHEMERIS_TYPE":"0","SEMIMAJOR_AXIS":"6925.298","MEAN_ANOMALY":"298.7988","BSTAR":"0.00067749000000","COUNTRY_CODE":"US","SITE":"AFETR"}];
